CUTE-1 (CO-55)          
1 27844U 03031E   26141.48326484  .00000173  00000+0  93673-4 0  9997
2 27844  98.6743 150.3782 0008294 262.0752  97.9485 14.24317125187870
CUBESAT XI-IV (CO-57)   
1 27848U 03031J   26141.45835313  .00000152  00000+0  85962-4 0  9993
2 27848  98.6774 150.0876 0008219 283.6237  76.4026 14.23604667187572
CUBESAT XI-V            
1 28895U 05043F   26141.35923738  .00000831  00000+0  13900-3 0  9995
2 28895  98.2957 296.4236 0012822 292.4191  67.5657 14.72549818 97808
CUTE-1.7+APD II (CO-65) 
1 32785U 08021C   26141.59744284  .00002996  00000+0  19266-3 0  9995
2 32785  97.8272 122.4718 0010718 114.5514 245.6833 15.09163611981186
CANX-2                  
1 32790U 08021H   26141.30379500  .00002533  00000+0  18094-3 0  9990
2 32790  97.8621 120.5667 0011584 129.7813 230.4435 15.05391524980769
SEEDS II (CO-66)        
1 32791U 08021J   26141.42568537  .00012724  00000+0  41774-3 0  9998
2 32791  97.7526 138.0681 0004608  67.6438 292.5291 15.31723964983190
SWISSCUBE               
1 35932U 09051B   26141.21168286  .00000644  00000+0  13700-3 0  9992
2 35932  98.4053  48.6290 0005686 305.3397  54.7272 14.62421846885216
BEESAT-1                
1 35933U 09051C   26140.45415592  .00000522  00000+0  11466-3 0  9995
2 35933  98.3982  47.5514 0004510 327.5835  32.5088 14.61668848885136
ITUPSAT1                
1 35935U 09051E   26141.17447264  .00000492  00000+0  11173-3 0  9999
2 35935  98.4067  47.5032 0006862 332.8166  27.2673 14.60394013884797
TISAT 1                 
1 36799U 10035E   26140.53828391  .00014056  00000+0  47855-3 0  9992
2 36799  98.0706  84.6627 0002805  39.3668 320.7774 15.30538753863477
AEROCUBE 4.5A           
1 38767U 12048K   26141.25436939  .00149660  00000+0  77915-3 0  9998
2 38767  64.6283 124.2160 0018264 215.5677 144.4262 15.80022698368384
STRAND-1                
1 39090U 13009E   26141.46034244  .00000158  00000+0  67402-4 0  9991
2 39090  98.3916 322.3538 0007710 317.1880  42.8706 14.37145301693226
BRITE-AUSTRIA           
1 39091U 13009F   26141.46172997  .00000105  00000+0  50168-4 0  9993
2 39091  98.3989 321.5600 0009415 325.9302  34.1279 14.36530086693213
NEE-01 PEGASO           
1 39151U 13018B   26140.32904150  .00001560  00000+0  15395-3 0  9996
2 39151  98.1188 283.5678 0011376 253.7412 106.2555 14.93503212706543
POPACS 2                
1 39269U 13055E   26141.53147470  .00008850  00000+0  15217-3 0  9997
2 39269  80.9912 174.6932 0418297 279.5333  75.8856 14.90574815659244
POPACS 3                
1 39270U 13055F   26140.76430709  .00011944  00000+0  28350-3 0  9993
2 39270  81.0017 258.9012 0554661 153.3897 209.6959 14.55431784634566
ZACUBE-1 (TSHEPISOSAT)  
1 39417U 13066B   26141.34340998  .00003087  00000+0  24286-3 0  9996
2 39417  97.8120 103.5350 0040755 342.8760  17.1086 15.00958035676706
WNISAT-1                
1 39423U 13066H   26141.37824586  .00000310  00000+0  65762-4 0  9997
2 39423  97.7170 292.4423 0162118 316.7149  42.1407 14.58023706662828
TRITON-1                
1 39427U 13066M   26141.61987850  .00001431  00000+0  17701-3 0  9996
2 39427  97.8262  52.0319 0089335 321.9125  37.5794 14.81577289670158
GOMX-1                  
1 39430U 13066Q   26141.62826657  .00001579  00000+0  24287-3 0  9998
2 39430  97.6495 343.7662 0129141 162.1558 198.4247 14.69340698666012
CUBEBUG-2 (LO-74)       
1 39440U 13066AA  26141.33355680  .00002831  00000+0  26533-3 0  9998
2 39440  97.8896  90.2065 0059444 115.7088 245.0285 14.93524684672981
NEE-02 KRYSAOR          
1 39441U 13066AB  26141.48677495  .00001077  00000+0  12326-3 0  9992
2 39441  97.8886  80.8966 0066777 156.0178 204.4173 14.86501187672239
FUNCUBE-1 (AO-73)       
1 39444U 13066AE  26140.67569056  .00005251  00000+0  33102-3 0  9991
2 39444  97.8265 111.5579 0034836 298.9376  60.8360 15.09093359675511
UWE-3                   
1 39446U 13066AG  26141.34372559  .00003101  00000+0  26964-3 0  9998
2 39446  97.8681  97.2451 0050387  50.5298 310.0365 14.96763327673560
BRITE-CA1 (TORONTO)     
1 40020U 14033L   26141.60715269  .00000397  00000+0  67509-4 0  9996
2 40020  97.9704 271.0313 0078626   3.0610 357.1063 14.72635475638309
DUCHIFAT-1              
1 40021U 14033M   26141.11291918  .00056933  00000+0  72160-3 0  9998
2 40021  98.0488 196.5891 0006283 165.9134 194.2297 15.59269252651522
NANOSATC-BR1            
1 40024U 14033Q   26141.53914745  .00011053  00000+0  37748-3 0  9994
2 40024  98.0740 171.5836 0001680 266.7816  93.3231 15.30507615649904
QB50P1                  
1 40025U 14033R   26141.45410363  .00005817  00000+0  29138-3 0  9998
2 40025  98.0976 150.7353 0007537 327.3362  32.7403 15.17791786648979
QB50P2                  
1 40032U 14033Y   26141.28406362  .00004693  00000+0  25695-3 0  9996
2 40032  98.0755 136.4993 0005677 266.1096  93.9485 15.14768104648592
PERSEUS-M2              
1 40037U 14033AD  26141.56680256  .00000544  00000+0  54744-4 0  9997
2 40037  97.9966  91.5709 0013067  34.0322 326.1734 14.95417780646800
